CTC2_L_00367001-01
1 10000U 23062B   26075.70045139  .00000000  00000+0  00000-0 0  9992
2 10000  50.0000   0.0000 0000000   0.0000   0.0000 13.16009679    11
CTC2_L_00367001-02
1 10001U 23007PL  26075.70045139  .00000000  00000+0  00000-0 0  9992
2 10001  50.0000   0.0000 0000000   0.0000  90.0000 13.16009679    11
CTC2_L_00367001-03
1 10002U 22178ST  26075.70045139  .00000000  00000+0  00000-0 0  9991
2 10002  50.0000   0.0000 0000000   0.0000 180.0000 13.16009679    12
CTC2_L_00367001-04
1 10003U 23862EF  26075.70045139  .00000000  00000+0  00000-0 0  9993
2 10003  50.0000   0.0000 0000000   0.0000 270.0000 13.16009679    13
CTC2_L_00367002-01
1 10004U 25504HM  26075.70045139  .00000000  00000+0  00000-0 0  9999
2 10004  50.0000  12.0000 0000000   0.0000  12.0000 13.16009679    11
CTC2_L_00367002-02
1 10005U 24772XQ  26075.70045139  .00000000  00000+0  00000-0 0  9996
2 10005  50.0000  12.0000 0000000   0.0000 102.0000 13.16009679    12
CTC2_L_00367002-03
1 10006U 26059SK  26075.70045139  .00000000  00000+0  00000-0 0  9997
2 10006  50.0000  12.0000 0000000   0.0000 192.0000 13.16009679    12
CTC2_L_00367002-04
1 10007U 23114CJ  26075.70045139  .00000000  00000+0  00000-0 0  9997
2 10007  50.0000  12.0000 0000000   0.0000 282.0000 13.16009679    13
CTC2_L_00367003-01
1 10008U 25817CJ  26075.70045139  .00000000  00000+0  00000-0 0  9990
2 10008  50.0000  24.0000 0000000   0.0000  24.0000 13.16009679    11
CTC2_L_00367003-02
1 10009U 26615NF  26075.70045139  .00000000  00000+0  00000-0 0  9998
2 10009  50.0000  24.0000 0000000   0.0000 114.0000 13.16009679    12
CTC2_L_00367003-03
1 10010U 23884PK  26075.70045139  .00000000  00000+0  00000-0 0  9995
2 10010  50.0000  24.0000 0000000   0.0000 204.0000 13.16009679    14
CTC2_L_00367003-04
1 10011U 22517PQ  26075.70045139  .00000000  00000+0  00000-0 0  9998
2 10011  50.0000  24.0000 0000000   0.0000 294.0000 13.16009679    14
CTC2_L_00367004-01
1 10012U 24716QI  26075.70045139  .00000000  00000+0  00000-0 0  9992
2 10012  50.0000  36.0000 0000000   0.0000  36.0000 13.16009679    12
CTC2_L_00367004-02
1 10013U 25008F   26075.70045139  .00000000  00000+0  00000-0 0  9998
2 10013  50.0000  36.0000 0000000   0.0000 126.0000 13.16009679    13
CTC2_L_00367004-03
1 10014U 23405PI  26075.70045139  .00000000  00000+0  00000-0 0  9998
2 10014  50.0000  36.0000 0000000   0.0000 216.0000 13.16009679    14
CTC2_L_00367004-04
1 10015U 23871AX  26075.70045139  .00000000  00000+0  00000-0 0  9996
2 10015  50.0000  36.0000 0000000   0.0000 306.0000 13.16009679    15
CTC2_L_00367005-01
1 10016U 25789SA  26075.70045139  .00000000  00000+0  00000-0 0  9997
2 10016  50.0000  48.0000 0000000   0.0000  48.0000 13.16009679    12
CTC2_L_00367005-02
1 10017U 25926EC  26075.70045139  .00000000  00000+0  00000-0 0  9991
2 10017  50.0000  48.0000 0000000   0.0000 138.0000 13.16009679    13
CTC2_L_00367005-03
1 10018U 26596SP  26075.70045139  .00000000  00000+0  00000-0 0  9996
2 10018  50.0000  48.0000 0000000   0.0000 228.0000 13.16009679    14
CTC2_L_00367005-04
1 10019U 23647FK  26075.70045139  .00000000  00000+0  00000-0 0  9991
2 10019  50.0000  48.0000 0000000   0.0000 318.0000 13.16009679    15
CTC2_L_00367006-01
1 10020U 23239VG  26075.70045139  .00000000  00000+0  00000-0 0  9990
2 10020  50.0000  60.0000 0000000   0.0000  60.0000 13.16009679    15
CTC2_L_00367006-02
1 10021U 22015VZ  26075.70045139  .00000000  00000+0  00000-0 0  9992
2 10021  50.0000  60.0000 0000000   0.0000 150.0000 13.16009679    16
CTC2_L_00367006-03
1 10022U 24413GT  26075.70045139  .00000000  00000+0  00000-0 0  9997
2 10022  50.0000  60.0000 0000000   0.0000 240.0000 13.16009679    17
CTC2_L_00367006-04
1 10023U 26928FJ  26075.70045139  .00000000  00000+0  00000-0 0  9991
2 10023  50.0000  60.0000 0000000   0.0000 330.0000 13.16009679    18
CTC2_L_00367007-01
1 10024U 25898GW  26075.70045139  .00000000  00000+0  00000-0 0  9997
2 10024  50.0000  72.0000 0000000   0.0000  72.0000 13.16009679    15
CTC2_L_00367007-02
1 10025U 26911ZO  26075.70045139  .00000000  00000+0  00000-0 0  9995
2 10025  50.0000  72.0000 0000000   0.0000 162.0000 13.16009679    16
CTC2_L_00367007-03
1 10026U 24523IU  26075.70045139  .00000000  00000+0  00000-0 0  9993
2 10026  50.0000  72.0000 0000000   0.0000 252.0000 13.16009679    17
CTC2_L_00367007-04
1 10027U 26772VP  26075.70045139  .00000000  00000+0  00000-0 0  9992
2 10027  50.0000  72.0000 0000000   0.0000 342.0000 13.16009679    18
CTC2_L_00367008-01
1 10028U 22349AF  26075.70045139  .00000000  00000+0  00000-0 0  9999
2 10028  50.0000  84.0000 0000000   0.0000  84.0000 13.16009679    15
CTC2_L_00367008-02
1 10029U 24917HL  26075.70045139  .00000000  00000+0  00000-0 0  9993
2 10029  50.0000  84.0000 0000000   0.0000 174.0000 13.16009679    16
CTC2_L_00367008-03
1 10030U 23438JD  26075.70045139  .00000000  00000+0  00000-0 0  9992
2 10030  50.0000  84.0000 0000000   0.0000 264.0000 13.16009679    18
CTC2_L_00367008-04
1 10031U 22272ZC  26075.70045139  .00000000  00000+0  00000-0 0  9998
2 10031  50.0000  84.0000 0000000   0.0000 354.0000 13.16009679    19
CTC2_L_00367009-01
1 10032U 24207ET  26075.70045139  .00000000  00000+0  00000-0 0  9999
2 10032  50.0000  96.0000 0000000   0.0000  96.0000 13.16009679    16
CTC2_L_00367009-02
1 10033U 22484LR  26075.70045139  .00000000  00000+0  00000-0 0  9995
2 10033  50.0000  96.0000 0000000   0.0000 186.0000 13.16009679    17
CTC2_L_00367009-03
1 10034U 26681ZR  26075.70045139  .00000000  00000+0  00000-0 0  9999
2 10034  50.0000  96.0000 0000000   0.0000 276.0000 13.16009679    18
CTC2_L_00367009-04
1 10035U 25921YD  26075.70045139  .00000000  00000+0  00000-0 0  9996
2 10035  50.0000  96.0000 0000000   0.0000   6.0000 13.16009679    10
CTC2_L_00367010-01
1 10036U 25262ZH  26075.70045139  .00000000  00000+0  00000-0 0  9995
2 10036  50.0000 108.0000 0000000   0.0000 108.0000 13.16009679    18
CTC2_L_00367010-02
1 10037U 23724RK  26075.70045139  .00000000  00000+0  00000-0 0  9997
2 10037  50.0000 108.0000 0000000   0.0000 198.0000 13.16009679    18
CTC2_L_00367010-03
1 10038U 25750JG  26075.70045139  .00000000  00000+0  00000-0 0  9999
2 10038  50.0000 108.0000 0000000   0.0000 288.0000 13.16009679    19
CTC2_L_00367010-04
1 10039U 24323AF  26075.70045139  .00000000  00000+0  00000-0 0  9995
2 10039  50.0000 108.0000 0000000   0.0000  18.0000 13.16009679    11
CTC2_L_00367011-01
1 10040U 26755KW  26075.70045139  .00000000  00000+0  00000-0 0  9998
2 10040  50.0000 120.0000 0000000   0.0000 120.0000 13.16009679    11
CTC2_L_00367011-02
1 10041U 26812BE  26075.70045139  .00000000  00000+0  00000-0 0  9993
2 10041  50.0000 120.0000 0000000   0.0000 210.0000 13.16009679    12
CTC2_L_00367011-03
1 10042U 22811PF  26075.70045139  .00000000  00000+0  00000-0 0  9999
2 10042  50.0000 120.0000 0000000   0.0000 300.0000 13.16009679    13
CTC2_L_00367011-04
1 10043U 22360CI  26075.70045139  .00000000  00000+0  00000-0 0  9999
2 10043  50.0000 120.0000 0000000   0.0000  30.0000 13.16009679    14
CTC2_L_00367012-01
1 10044U 23835EN  26075.70045139  .00000000  00000+0  00000-0 0  9998
2 10044  50.0000 132.0000 0000000   0.0000 132.0000 13.16009679    11
CTC2_L_00367012-02
1 10045U 26460GE  26075.70045139  .00000000  00000+0  00000-0 0  9996
2 10045  50.0000 132.0000 0000000   0.0000 222.0000 13.16009679    12
CTC2_L_00367012-03
1 10046U 26278WZ  26075.70045139  .00000000  00000+0  00000-0 0  9994
2 10046  50.0000 132.0000 0000000   0.0000 312.0000 13.16009679    13
CTC2_L_00367012-04
1 10047U 26975VD  26075.70045139  .00000000  00000+0  00000-0 0  9999
2 10047  50.0000 132.0000 0000000   0.0000  42.0000 13.16009679    14
CTC2_L_00367013-01
1 10048U 23852AU  26075.70045139  .00000000  00000+0  00000-0 0  9991
2 10048  50.0000 144.0000 0000000   0.0000 144.0000 13.16009679    11
CTC2_L_00367013-02
1 10049U 23832XT  26075.70045139  .00000000  00000+0  00000-0 0  9990
2 10049  50.0000 144.0000 0000000   0.0000 234.0000 13.16009679    12
CTC2_L_00367013-03
1 10050U 23226IJ  26075.70045139  .00000000  00000+0  00000-0 0  9999
2 10050  50.0000 144.0000 0000000   0.0000 324.0000 13.16009679    14
CTC2_L_00367013-04
1 10051U 26232IE  26075.70045139  .00000000  00000+0  00000-0 0  9990
2 10051  50.0000 144.0000 0000000   0.0000  54.0000 13.16009679    15
CTC2_L_00367014-01
1 10052U 26444PO  26075.70045139  .00000000  00000+0  00000-0 0  9996
2 10052  50.0000 156.0000 0000000   0.0000 156.0000 13.16009679    12
CTC2_L_00367014-02
1 10053U 26452XG  26075.70045139  .00000000  00000+0  00000-0 0  9996
2 10053  50.0000 156.0000 0000000   0.0000 246.0000 13.16009679    13
CTC2_L_00367014-03
1 10054U 22229UE  26075.70045139  .00000000  00000+0  00000-0 0  9995
2 10054  50.0000 156.0000 0000000   0.0000 336.0000 13.16009679    14
CTC2_L_00367014-04
1 10055U 25382FM  26075.70045139  .00000000  00000+0  00000-0 0  9999
2 10055  50.0000 156.0000 0000000   0.0000  66.0000 13.16009679    15
CTC2_L_00367015-01
1 10056U 22051TW  26075.70045139  .00000000  00000+0  00000-0 0  9990
2 10056  50.0000 168.0000 0000000   0.0000 168.0000 13.16009679    12
CTC2_L_00367015-02
1 10057U 25523UK  26075.70045139  .00000000  00000+0  00000-0 0  9998
2 10057  50.0000 168.0000 0000000   0.0000 258.0000 13.16009679    13
CTC2_L_00367015-03
1 10058U 26424GI  26075.70045139  .00000000  00000+0  00000-0 0  9990
2 10058  50.0000 168.0000 0000000   0.0000 348.0000 13.16009679    14
CTC2_L_00367015-04
1 10059U 23395IN  26075.70045139  .00000000  00000+0  00000-0 0  9995
2 10059  50.0000 168.0000 0000000   0.0000  78.0000 13.16009679    15
CTC2_L_00367016-01
1 10060U 23368PG  26075.70045139  .00000000  00000+0  00000-0 0  9997
2 10060  50.0000 180.0000 0000000   0.0000 180.0000 13.16009679    15
CTC2_L_00367016-02
1 10061U 22547OX  26075.70045139  .00000000  00000+0  00000-0 0  9996
2 10061  50.0000 180.0000 0000000   0.0000 270.0000 13.16009679    16
